CCSDS_OMM_VERS = 2.0
CREATION_DATE  = 
ORIGINATOR     = 

OBJECT_NAME    = STARLINK-35505
OBJECT_ID      = 2025-253L
CENTER_NAME    = EARTH
REF_FRAME      = TEME
TIME_SYSTEM    = UTC
MEAN_ELEMENT_THEORY = SGP/SGP4

EPOCH          = 2025-11-19T14:00:01.999872
MEAN_MOTION    = 15.75331077
ECCENTRICITY   = .00016396
INCLINATION    = 42.9983
RA_OF_ASC_NODE = 121.1870
ARG_OF_PERICENTER = 283.7082
MEAN_ANOMALY   = 176.2285

EPHEMERIS_TYPE = 0
CLASSIFICATION_TYPE = U
NORAD_CAT_ID   = 66329
ELEMENT_SET_NO = 999
REV_AT_EPOCH   = 320
BSTAR          = -.31953218E-2
MEAN_MOTION_DOT = -.47092E-2
MEAN_MOTION_DDOT = 0

CCSDS_OMM_VERS = 2.0
CREATION_DATE  = 
ORIGINATOR     = 

OBJECT_NAME    = STARLINK-35512
OBJECT_ID      = 2025-253M
CENTER_NAME    = EARTH
REF_FRAME      = TEME
TIME_SYSTEM    = UTC
MEAN_ELEMENT_THEORY = SGP/SGP4

EPOCH          = 2025-11-19T14:00:01.999872
MEAN_MOTION    = 15.75051677
ECCENTRICITY   = .00017739
INCLINATION    = 42.9981
RA_OF_ASC_NODE = 121.1613
ARG_OF_PERICENTER = 267.3843
MEAN_ANOMALY   = 202.2838

EPHEMERIS_TYPE = 0
CLASSIFICATION_TYPE = U
NORAD_CAT_ID   = 66330
ELEMENT_SET_NO = 999
REV_AT_EPOCH   = 320
BSTAR          = -.30358149E-3
MEAN_MOTION_DOT = -.46879E-3
MEAN_MOTION_DDOT = 0

CCSDS_OMM_VERS = 2.0
CREATION_DATE  = 
ORIGINATOR     = 

OBJECT_NAME    = STARLINK-35257
OBJECT_ID      = 2025-253N
CENTER_NAME    = EARTH
REF_FRAME      = TEME
TIME_SYSTEM    = UTC
MEAN_ELEMENT_THEORY = SGP/SGP4

EPOCH          = 2025-11-19T14:00:01.999872
MEAN_MOTION    = 15.75063456
ECCENTRICITY   = .00022548
INCLINATION    = 42.9982
RA_OF_ASC_NODE = 121.1226
ARG_OF_PERICENTER = 266.7507
MEAN_ANOMALY   = 218.2207

EPHEMERIS_TYPE = 0
CLASSIFICATION_TYPE = U
NORAD_CAT_ID   = 66331
ELEMENT_SET_NO = 999
REV_AT_EPOCH   = 293
BSTAR          = -.1021515E-3
MEAN_MOTION_DOT = -.16158E-3
MEAN_MOTION_DDOT = 0

CCSDS_OMM_VERS = 2.0
CREATION_DATE  = 
ORIGINATOR     = 

OBJECT_NAME    = STARLINK-35322
OBJECT_ID      = 2025-253P
CENTER_NAME    = EARTH
REF_FRAME      = TEME
TIME_SYSTEM    = UTC
MEAN_ELEMENT_THEORY = SGP/SGP4

EPOCH          = 2025-11-19T14:00:01.999872
MEAN_MOTION    = 15.75046099
ECCENTRICITY   = .00014554
INCLINATION    = 42.9982
RA_OF_ASC_NODE = 121.1462
ARG_OF_PERICENTER = 275.9610
MEAN_ANOMALY   = 199.4572

EPHEMERIS_TYPE = 0
CLASSIFICATION_TYPE = U
NORAD_CAT_ID   = 66332
ELEMENT_SET_NO = 999
REV_AT_EPOCH   = 320
BSTAR          = -.16982421E-3
MEAN_MOTION_DOT = -.2649E-3
MEAN_MOTION_DDOT = 0

CCSDS_OMM_VERS = 2.0
CREATION_DATE  = 
ORIGINATOR     = 

OBJECT_NAME    = STARLINK-35400
OBJECT_ID      = 2025-253Q
CENTER_NAME    = EARTH
REF_FRAME      = TEME
TIME_SYSTEM    = UTC
MEAN_ELEMENT_THEORY = SGP/SGP4

EPOCH          = 2025-11-19T14:00:01.999872
MEAN_MOTION    = 15.75056613
ECCENTRICITY   = .00019416
INCLINATION    = 42.9979
RA_OF_ASC_NODE = 121.1264
ARG_OF_PERICENTER = 275.6552
MEAN_ANOMALY   = 207.4123

EPHEMERIS_TYPE = 0
CLASSIFICATION_TYPE = U
NORAD_CAT_ID   = 66333
ELEMENT_SET_NO = 999
REV_AT_EPOCH   = 320
BSTAR          = -.16109673E-3
MEAN_MOTION_DOT = -.2517E-3
MEAN_MOTION_DDOT = 0

CCSDS_OMM_VERS = 2.0
CREATION_DATE  = 
ORIGINATOR     = 

OBJECT_NAME    = STARLINK-35407
OBJECT_ID      = 2025-253R
CENTER_NAME    = EARTH
REF_FRAME      = TEME
TIME_SYSTEM    = UTC
MEAN_ELEMENT_THEORY = SGP/SGP4

EPOCH          = 2025-11-19T14:00:01.999872
MEAN_MOTION    = 15.75049848
ECCENTRICITY   = .00012048
INCLINATION    = 42.9985
RA_OF_ASC_NODE = 121.1425
ARG_OF_PERICENTER = 263.3454
MEAN_ANOMALY   = 213.9649

EPHEMERIS_TYPE = 0
CLASSIFICATION_TYPE = U
NORAD_CAT_ID   = 66334
ELEMENT_SET_NO = 999
REV_AT_EPOCH   = 320
BSTAR          = -.15348596E-4
MEAN_MOTION_DOT = -.2835E-4
MEAN_MOTION_DDOT = 0

CCSDS_OMM_VERS = 2.0
CREATION_DATE  = 
ORIGINATOR     = 

OBJECT_NAME    = STARLINK-35417
OBJECT_ID      = 2025-253S
CENTER_NAME    = EARTH
REF_FRAME      = TEME
TIME_SYSTEM    = UTC
MEAN_ELEMENT_THEORY = SGP/SGP4

EPOCH          = 2025-11-19T14:00:01.999872
MEAN_MOTION    = 15.75098033
ECCENTRICITY   = .00018242
INCLINATION    = 42.9985
RA_OF_ASC_NODE = 121.1030
ARG_OF_PERICENTER = 265.2933
MEAN_ANOMALY   = 227.3643

EPHEMERIS_TYPE = 0
CLASSIFICATION_TYPE = U
NORAD_CAT_ID   = 66335
ELEMENT_SET_NO = 999
REV_AT_EPOCH   = 320
BSTAR          = -.83959285E-3
MEAN_MOTION_DOT = -.127847E-2
MEAN_MOTION_DDOT = 0

CCSDS_OMM_VERS = 2.0
CREATION_DATE  = 
ORIGINATOR     = 

OBJECT_NAME    = STARLINK-35404
OBJECT_ID      = 2025-253T
CENTER_NAME    = EARTH
REF_FRAME      = TEME
TIME_SYSTEM    = UTC
MEAN_ELEMENT_THEORY = SGP/SGP4

EPOCH          = 2025-11-19T14:00:01.999872
MEAN_MOTION    = 15.75077214
ECCENTRICITY   = .00010695
INCLINATION    = 42.9981
RA_OF_ASC_NODE = 121.1178
ARG_OF_PERICENTER = 268.9540
MEAN_ANOMALY   = 217.9471

EPHEMERIS_TYPE = 0
CLASSIFICATION_TYPE = U
NORAD_CAT_ID   = 66336
ELEMENT_SET_NO = 999
REV_AT_EPOCH   = 330
BSTAR          = -.42048972E-3
MEAN_MOTION_DOT = -.64679E-3
MEAN_MOTION_DDOT = 0

CCSDS_OMM_VERS = 2.0
CREATION_DATE  = 
ORIGINATOR     = 

OBJECT_NAME    = STARLINK-34783
OBJECT_ID      = 2025-253U
CENTER_NAME    = EARTH
REF_FRAME      = TEME
TIME_SYSTEM    = UTC
MEAN_ELEMENT_THEORY = SGP/SGP4

EPOCH          = 2025-11-19T14:00:01.999872
MEAN_MOTION    = 15.75073580
ECCENTRICITY   = .00014662
INCLINATION    = 42.9985
RA_OF_ASC_NODE = 121.0986
ARG_OF_PERICENTER = 265.6322
MEAN_ANOMALY   = 228.9463

EPHEMERIS_TYPE = 0
CLASSIFICATION_TYPE = U
NORAD_CAT_ID   = 66337
ELEMENT_SET_NO = 999
REV_AT_EPOCH   = 325
BSTAR          = -.4892254E-3
MEAN_MOTION_DOT = -.75074E-3
MEAN_MOTION_DDOT = 0

CCSDS_OMM_VERS = 2.0
CREATION_DATE  = 
ORIGINATOR     = 

OBJECT_NAME    = STARLINK-35477
OBJECT_ID      = 2025-253V
CENTER_NAME    = EARTH
REF_FRAME      = TEME
TIME_SYSTEM    = UTC
MEAN_ELEMENT_THEORY = SGP/SGP4

EPOCH          = 2025-11-19T14:00:01.999872
MEAN_MOTION    = 15.75093695
ECCENTRICITY   = .00018668
INCLINATION    = 42.9983
RA_OF_ASC_NODE = 121.1088
ARG_OF_PERICENTER = 262.6801
MEAN_ANOMALY   = 228.0587

EPHEMERIS_TYPE = 0
CLASSIFICATION_TYPE = U
NORAD_CAT_ID   = 66338
ELEMENT_SET_NO = 999
REV_AT_EPOCH   = 330
BSTAR          = -.75963482E-3
MEAN_MOTION_DOT = -.115859E-2
MEAN_MOTION_DDOT = 0

CCSDS_OMM_VERS = 2.0
CREATION_DATE  = 
ORIGINATOR     = 

OBJECT_NAME    = STARLINK-35443
OBJECT_ID      = 2025-253W
CENTER_NAME    = EARTH
REF_FRAME      = TEME
TIME_SYSTEM    = UTC
MEAN_ELEMENT_THEORY = SGP/SGP4

EPOCH          = 2025-11-19T14:00:01.999872
MEAN_MOTION    = 15.75082713
ECCENTRICITY   = .00017543
INCLINATION    = 42.9983
RA_OF_ASC_NODE = 121.0831
ARG_OF_PERICENTER = 262.3674
MEAN_ANOMALY   = 237.9611

EPHEMERIS_TYPE = 0
CLASSIFICATION_TYPE = U
NORAD_CAT_ID   = 66339
ELEMENT_SET_NO = 999
REV_AT_EPOCH   = 325
BSTAR          = -.62365915E-3
MEAN_MOTION_DOT = -.95387E-3
MEAN_MOTION_DDOT = 0

CCSDS_OMM_VERS = 2.0
CREATION_DATE  = 
ORIGINATOR     = 

OBJECT_NAME    = STARLINK-35218
OBJECT_ID      = 2025-253X
CENTER_NAME    = EARTH
REF_FRAME      = TEME
TIME_SYSTEM    = UTC
MEAN_ELEMENT_THEORY = SGP/SGP4

EPOCH          = 2025-11-19T14:00:01.999872
MEAN_MOTION    = 15.75003036
ECCENTRICITY   = .00023322
INCLINATION    = 42.9986
RA_OF_ASC_NODE = 121.1123
ARG_OF_PERICENTER = 264.7915
MEAN_ANOMALY   = 223.9936

EPHEMERIS_TYPE = 0
CLASSIFICATION_TYPE = U
NORAD_CAT_ID   = 66340
ELEMENT_SET_NO = 999
REV_AT_EPOCH   = 330
BSTAR          = .677393E-3
MEAN_MOTION_DOT = .104717E-2
MEAN_MOTION_DDOT = 0

