STARLINK-35505          
1 66329U 25253L   25323.58335648 -.00470920  00000+0 -31953-2 0  9996
2 66329  42.9983 121.1870 0001639 283.7082 176.2285 15.75331077  3207
STARLINK-35512          
1 66330U 25253M   25323.58335648 -.00046879  00000+0 -30358-3 0  9999
2 66330  42.9981 121.1613 0001773 267.3843 202.2838 15.75051677  3203
STARLINK-35257          
1 66331U 25253N   25323.58335648 -.00016158  00000+0 -10215-3 0  9997
2 66331  42.9982 121.1226 0002254 266.7507 218.2207 15.75063456  2934
STARLINK-35322          
1 66332U 25253P   25323.58335648 -.00026490  00000+0 -16982-3 0  9995
2 66332  42.9982 121.1462 0001455 275.9610 199.4572 15.75046099  3206
STARLINK-35400          
1 66333U 25253Q   25323.58335648 -.00025170  00000+0 -16110-3 0  9993
2 66333  42.9979 121.1264 0001941 275.6552 207.4123 15.75056613  3200
STARLINK-35407          
1 66334U 25253R   25323.58335648 -.00002835  00000+0 -15349-4 0  9991
2 66334  42.9985 121.1425 0001204 263.3454 213.9649 15.75049848  3201
STARLINK-35417          
1 66335U 25253S   25323.58335648 -.00127847  00000+0 -83959-3 0  9994
2 66335  42.9985 121.1030 0001824 265.2933 227.3643 15.75098033  3208
STARLINK-35404          
1 66336U 25253T   25323.58335648 -.00064679  00000+0 -42049-3 0  9993
2 66336  42.9981 121.1178 0001069 268.9540 217.9471 15.75077214  3306
STARLINK-34783          
1 66337U 25253U   25323.58335648 -.00075074  00000+0 -48923-3 0  9992
2 66337  42.9985 121.0986 0001466 265.6322 228.9463 15.75073580  3259
STARLINK-35477          
1 66338U 25253V   25323.58335648 -.00115859  00000+0 -75963-3 0  9993
2 66338  42.9983 121.1088 0001866 262.6801 228.0587 15.75093695  3308
STARLINK-35443          
1 66339U 25253W   25323.58335648 -.00095387  00000+0 -62366-3 0  9990
2 66339  42.9983 121.0831 0001754 262.3674 237.9611 15.75082713  3255
STARLINK-35218          
1 66340U 25253X   25323.58335648  .00104717  00000+0  67739-3 0  9997
2 66340  42.9986 121.1123 0002332 264.7915 223.9936 15.75003036  3304
